<?xml version="1.0" ?> <gpx> <trk> <trkseg> <trkpt lat="49.2775506" lon="-123.0141300"/> <trkpt lat="49.2776144" lon="-123.0141451"/> <trkpt lat="49.2776794" lon="-123.0141497"/> <trkpt lat="49.2777427" lon="-123.0141494"/> <trkpt lat="49.2778074" lon="-123.0141507"/> <trkpt lat="49.2778718" lon="-123.0141513"/> <trkpt lat="49.2779384" lon="-123.0141484"/> <trkpt lat="49.2780052" lon="-123.0141434"/> <trkpt lat="49.2780723" lon="-123.0141385"/> <trkpt lat="49.2781368" lon="-123.0141352"/> <trkpt lat="49.2782001" lon="-123.0141278"/> <trkpt lat="49.2782629" lon="-123.0141167"/> <trkpt lat="49.2783147" lon="-123.0140945"/> <trkpt lat="49.2783430" lon="-123.0140379"/> <trkpt lat="49.2783446" lon="-123.0139479"/> <trkpt lat="49.2783408" lon="-123.0138547"/> <trkpt lat="49.2783379" lon="-123.0137560"/> <trkpt lat="49.2783362" lon="-123.0136555"/> <trkpt lat="49.2783399" lon="-123.0135547"/> <trkpt lat="49.2783443" lon="-123.0134464"/> <trkpt lat="49.2783498" lon="-123.0133334"/> <trkpt lat="49.2783569" lon="-123.0132277"/> <trkpt lat="49.2783612" lon="-123.0131244"/> <trkpt lat="49.2783608" lon="-123.0130237"/> <trkpt lat="49.2783591" lon="-123.0129208"/> <trkpt lat="49.2783602" lon="-123.0128103"/> <trkpt lat="49.2783629" lon="-123.0127032"/> <trkpt lat="49.2783612" lon="-123.0126059"/> <trkpt lat="49.2783556" lon="-123.0125156"/> <trkpt lat="49.2783558" lon="-123.0124189"/> <trkpt lat="49.2783611" lon="-123.0123208"/> <trkpt lat="49.2783636" lon="-123.0122205"/> <trkpt lat="49.2783549" lon="-123.0121244"/> <trkpt lat="49.2783457" lon="-123.0120336"/> <trkpt lat="49.2783369" lon="-123.0119380"/> <trkpt lat="49.2783280" lon="-123.0118326"/> <trkpt lat="49.2783218" lon="-123.0117321"/> <trkpt lat="49.2783086" lon="-123.0116461"/> <trkpt lat="49.2782728" lon="-123.0115981"/> <trkpt lat="49.2782144" lon="-123.0115848"/> <trkpt lat="49.2781487" lon="-123.0115800"/> <trkpt lat="49.2780848" lon="-123.0115824"/> <trkpt lat="49.2780195" lon="-123.0115829"/> <trkpt lat="49.2779596" lon="-123.0115740"/> <trkpt lat="49.2779171" lon="-123.0115416"/> <trkpt lat="49.2778927" lon="-123.0114797"/> <trkpt lat="49.2778669" lon="-123.0114194"/> <trkpt lat="49.2778189" lon="-123.0113953"/> <trkpt lat="49.2777588" lon="-123.0113860"/> <trkpt lat="49.2777014" lon="-123.0113832"/> <trkpt lat="49.2776452" lon="-123.0113817"/> <trkpt lat="49.2775907" lon="-123.0113757"/> <trkpt lat="49.2775481" lon="-123.0113472"/> <trkpt lat="49.2775376" lon="-123.0112730"/> <trkpt lat="49.2775366" lon="-123.0111830"/> <trkpt lat="49.2775358" lon="-123.0110893"/> <trkpt lat="49.2775381" lon="-123.0109923"/> <trkpt lat="49.2775364" lon="-123.0108979"/> <trkpt lat="49.2775374" lon="-123.0108025"/> <trkpt lat="49.2775324" lon="-123.0107107"/> <trkpt lat="49.2775153" lon="-123.0106519"/> <trkpt lat="49.2774786" lon="-123.0106149"/> <trkpt lat="49.2774527" lon="-123.0105517"/> <trkpt lat="49.2774470" lon="-123.0104701"/> <trkpt lat="49.2774412" lon="-123.0103776"/> <trkpt lat="49.2774401" lon="-123.0102842"/> <trkpt lat="49.2774393" lon="-123.0101947"/> <trkpt lat="49.2774391" lon="-123.0101021"/> <trkpt lat="49.2774446" lon="-123.0100049"/> <trkpt lat="49.2774489" lon="-123.0099040"/> <trkpt lat="49.2774502" lon="-123.0098016"/> <trkpt lat="49.2774551" lon="-123.0096923"/> <trkpt lat="49.2774578" lon="-123.0095793"/> <trkpt lat="49.2774590" lon="-123.0094704"/> <trkpt lat="49.2774582" lon="-123.0093659"/> <trkpt lat="49.2774564" lon="-123.0092668"/> <trkpt lat="49.2774550" lon="-123.0091771"/> <trkpt lat="49.2774536" lon="-123.0090909"/> <trkpt lat="49.2774509" lon="-123.0090071"/> <trkpt lat="49.2774525" lon="-123.0089289"/> <trkpt lat="49.2774578" lon="-123.0088598"/> <trkpt lat="49.2774881" lon="-123.0088271"/> <trkpt lat="49.2775154" lon="-123.0087918"/> <trkpt lat="49.2775158" lon="-123.0087314"/> <trkpt lat="49.2774931" lon="-123.0086849"/> <trkpt lat="49.2774512" lon="-123.0086516"/> <trkpt lat="49.2774175" lon="-123.0085935"/> <trkpt lat="49.2773975" lon="-123.0085056"/> <trkpt lat="49.2773859" lon="-123.0084106"/> <trkpt lat="49.2773814" lon="-123.0083103"/> <trkpt lat="49.2773798" lon="-123.0082094"/> <trkpt lat="49.2773787" lon="-123.0081039"/> <trkpt lat="49.2773783" lon="-123.0080037"/> <trkpt lat="49.2773834" lon="-123.0079067"/> <trkpt lat="49.2773868" lon="-123.0078084"/> <trkpt lat="49.2773907" lon="-123.0077071"/> <trkpt lat="49.2773943" lon="-123.0076044"/> <trkpt lat="49.2773952" lon="-123.0075022"/> <trkpt lat="49.2773971" lon="-123.0074000"/> <trkpt lat="49.2773995" lon="-123.0073002"/> <trkpt lat="49.2773988" lon="-123.0072017"/> <trkpt lat="49.2773992" lon="-123.0071069"/> <trkpt lat="49.2774058" lon="-123.0070118"/> <trkpt lat="49.2774153" lon="-123.0069145"/> <trkpt lat="49.2774273" lon="-123.0068121"/> </trkseg> </trk> </gpx>